{
  "type": "FeatureCollection",
  "features": [
    {
      "type": "Feature",
      "properties": {
        "norad_id": 66524,
        "name": "STARLINK-35687",
        "group": "last-30-days",
        "lat": -40.70657040759215,
        "lon": -41.7623489371622,
        "alt_km": 416.4885268154185,
        "timestamp": "2025-12-09T20:37:08.055720+00:00",
        "meta_object_name": "STARLINK-35687",
        "meta_object_id": "2025-265J",
        "meta_epoch": "2025-12-09T14:00:01.999872",
        "meta_mean_motion": 15.51881765,
        "meta_eccentricity": 0.00015048,
        "meta_inclination": 42.9999,
        "meta_ra_of_asc_node": 72.4455,
        "meta_arg_of_pericenter": 289.0118,
        "meta_mean_anomaly": 222.0669,
        "meta_ephemeris_type": 0,
        "meta_classification_type": "U",
        "meta_norad_cat_id": 66524,
        "meta_element_set_no": 999,
        "meta_rev_at_epoch": 448,
        "meta_bstar": -0.030598928,
        "meta_mean_motion_dot": -0.01682903,
        "meta_mean_motion_ddot": 0,
        "tle_line1": "1 66524U 25265J   25343.58335648 -.01682903  00000+0 -30599-1 0  9999",
        "tle_line2": "2 66524  42.9999  72.4455 0001504 289.0118 222.0669 15.51881765  4483"
      },
      "geometry": {
        "type": "Point",
        "coordinates": [
          -41.7623489371622,
          -40.70657040759215
        ]
      }
    },
    {
      "type": "Feature",
      "properties": {
        "norad_id": 66525,
        "name": "STARLINK-35975",
        "group": "last-30-days",
        "lat": -41.181022886663214,
        "lon": -39.3176905958913,
        "alt_km": 416.4796520598384,
        "timestamp": "2025-12-09T20:37:08.055730+00:00",
        "meta_object_name": "STARLINK-35975",
        "meta_object_id": "2025-265K",
        "meta_epoch": "2025-12-09T14:00:01.999872",
        "meta_mean_motion": 15.51904021,
        "meta_eccentricity": 0.00013708,
        "meta_inclination": 43,
        "meta_ra_of_asc_node": 72.4413,
        "meta_arg_of_pericenter": 285.5217,
        "meta_mean_anomaly": 227.4499,
        "meta_ephemeris_type": 0,
        "meta_classification_type": "U",
        "meta_norad_cat_id": 66525,
        "meta_element_set_no": 999,
        "meta_rev_at_epoch": 448,
        "meta_bstar": -0.030876852,
        "meta_mean_motion_dot": -0.01697737,
        "meta_mean_motion_ddot": 0,
        "tle_line1": "1 66525U 25265K   25343.58335648 -.01697737  00000+0 -30877-1 0  9990",
        "tle_line2": "2 66525  43.0000  72.4413 0001370 285.5217 227.4499 15.51904021  4486"
      },
      "geometry": {
        "type": "Point",
        "coordinates": [
          -39.3176905958913,
          -41.181022886663214
        ]
      }
    },
    {
      "type": "Feature",
      "properties": {
        "norad_id": 66526,
        "name": "STARLINK-35932",
        "group": "last-30-days",
        "lat": -41.60305871061073,
        "lon": -36.837723173601155,
        "alt_km": 416.45215216894394,
        "timestamp": "2025-12-09T20:37:08.055744+00:00",
        "meta_object_name": "STARLINK-35932",
        "meta_object_id": "2025-265L",
        "meta_epoch": "2025-12-09T14:00:01.999872",
        "meta_mean_motion": 15.51902978,
        "meta_eccentricity": 0.00014651,
        "meta_inclination": 43.0001,
        "meta_ra_of_asc_node": 72.4375,
        "meta_arg_of_pericenter": 288.6923,
        "meta_mean_anomaly": 226.1929,
        "meta_ephemeris_type": 0,
        "meta_classification_type": "U",
        "meta_norad_cat_id": 66526,
        "meta_element_set_no": 999,
        "meta_rev_at_epoch": 437,
        "meta_bstar": -0.030762269,
        "meta_mean_motion_dot": -0.01692088,
        "meta_mean_motion_ddot": 0,
        "tle_line1": "1 66526U 25265L   25343.58335648 -.01692088  00000+0 -30762-1 0  9998",
        "tle_line2": "2 66526  43.0001  72.4375 0001465 288.6923 226.1929 15.51902978  4379"
      },
      "geometry": {
        "type": "Point",
        "coordinates": [
          -36.837723173601155,
          -41.60305871061073
        ]
      }
    },
    {
      "type": "Feature",
      "properties": {
        "norad_id": 66527,
        "name": "STARLINK-35935",
        "group": "last-30-days",
        "lat": -41.972622968808054,
        "lon": -34.31415147120752,
        "alt_km": 416.5023614911115,
        "timestamp": "2025-12-09T20:37:08.055754+00:00",
        "meta_object_name": "STARLINK-35935",
        "meta_object_id": "2025-265M",
        "meta_epoch": "2025-12-09T14:00:01.999872",
        "meta_mean_motion": 15.51915996,
        "meta_eccentricity": 0.00013214,
        "meta_inclination": 42.9999,
        "meta_ra_of_asc_node": 72.4322,
        "meta_arg_of_pericenter": 286.111,
        "meta_mean_anomaly": 230.6904,
        "meta_ephemeris_type": 0,
        "meta_classification_type": "U",
        "meta_norad_cat_id": 66527,
        "meta_element_set_no": 999,
        "meta_rev_at_epoch": 448,
        "meta_bstar": -0.031171746,
        "meta_mean_motion_dot": -0.01712865,
        "meta_mean_motion_ddot": 0,
        "tle_line1": "1 66527U 25265M   25343.58335648 -.01712865  00000+0 -31172-1 0  9991",
        "tle_line2": "2 66527  42.9999  72.4322 0001321 286.1110 230.6904 15.51915996  4487"
      },
      "geometry": {
        "type": "Point",
        "coordinates": [
          -34.31415147120752,
          -41.972622968808054
        ]
      }
    },
    {
      "type": "Feature",
      "properties": {
        "norad_id": 66528,
        "name": "STARLINK-35928",
        "group": "last-30-days",
        "lat": -42.28489940362537,
        "lon": -31.777241697632235,
        "alt_km": 416.4470267985671,
        "timestamp": "2025-12-09T20:37:08.055764+00:00",
        "meta_object_name": "STARLINK-35928",
        "meta_object_id": "2025-265N",
        "meta_epoch": "2025-12-09T14:00:01.999872",
        "meta_mean_motion": 15.5190803,
        "meta_eccentricity": 0.00014161,
        "meta_inclination": 43.0002,
        "meta_ra_of_asc_node": 72.428,
        "meta_arg_of_pericenter": 286.866,
        "meta_mean_anomaly": 231.8523,
        "meta_ephemeris_type": 0,
        "meta_classification_type": "U",
        "meta_norad_cat_id": 66528,
        "meta_element_set_no": 999,
        "meta_rev_at_epoch": 448,
        "meta_bstar": -0.030905068,
        "meta_mean_motion_dot": -0.01699368,
        "meta_mean_motion_ddot": 0,
        "tle_line1": "1 66528U 25265N   25343.58335648 -.01699368  00000+0 -30905-1 0  9997",
        "tle_line2": "2 66528  43.0002  72.4280 0001416 286.8660 231.8523 15.51908030  4481"
      },
      "geometry": {
        "type": "Point",
        "coordinates": [
          -31.777241697632235,
          -42.28489940362537
        ]
      }
    },
    {
      "type": "Feature",
      "properties": {
        "norad_id": 66529,
        "name": "STARLINK-35933",
        "group": "last-30-days",
        "lat": -42.54109769572222,
        "lon": -29.207061139961045,
        "alt_km": 416.3888111262904,
        "timestamp": "2025-12-09T20:37:08.055774+00:00",
        "meta_object_name": "STARLINK-35933",
        "meta_object_id": "2025-265P",
        "meta_epoch": "2025-12-09T14:00:01.999872",
        "meta_mean_motion": 15.51915545,
        "meta_eccentricity": 0.00014346,
        "meta_inclination": 43,
        "meta_ra_of_asc_node": 72.4223,
        "meta_arg_of_pericenter": 282.2168,
        "meta_mean_anomaly": 238.4181,
        "meta_ephemeris_type": 0,
        "meta_classification_type": "U",
        "meta_norad_cat_id": 66529,
        "meta_element_set_no": 999,
        "meta_rev_at_epoch": 448,
        "meta_bstar": -0.031147603,
        "meta_mean_motion_dot": -0.01711711,
        "meta_mean_motion_ddot": 0,
        "tle_line1": "1 66529U 25265P   25343.58335648 -.01711711  00000+0 -31148-1 0  9995",
        "tle_line2": "2 66529  43.0000  72.4223 0001434 282.2168 238.4181 15.51915545  4482"
      },
      "geometry": {
        "type": "Point",
        "coordinates": [
          -29.207061139961045,
          -42.54109769572222
        ]
      }
    },
    {
      "type": "Feature",
      "properties": {
        "norad_id": 66530,
        "name": "STARLINK-35961",
        "group": "last-30-days",
        "lat": -42.73877491693553,
        "lon": -26.62708935796676,
        "alt_km": 416.41667058103303,
        "timestamp": "2025-12-09T20:37:08.055784+00:00",
        "meta_object_name": "STARLINK-35961",
        "meta_object_id": "2025-265Q",
        "meta_epoch": "2025-12-09T14:00:01.999872",
        "meta_mean_motion": 15.51910373,
        "meta_eccentricity": 0.0001439,
        "meta_inclination": 43.0001,
        "meta_ra_of_asc_node": 72.4182,
        "meta_arg_of_pericenter": 286.7155,
        "meta_mean_anomaly": 235.8369,
        "meta_ephemeris_type": 0,
        "meta_classification_type": "U",
        "meta_norad_cat_id": 66530,
        "meta_element_set_no": 999,
        "meta_rev_at_epoch": 448,
        "meta_bstar": -0.030988043,
        "meta_mean_motion_dot": -0.01703588,
        "meta_mean_motion_ddot": 0,
        "tle_line1": "1 66530U 25265Q   25343.58335648 -.01703588  00000+0 -30988-1 0  9991",
        "tle_line2": "2 66530  43.0001  72.4182 0001439 286.7155 235.8369 15.51910373  4482"
      },
      "geometry": {
        "type": "Point",
        "coordinates": [
          -26.62708935796676,
          -42.73877491693553
        ]
      }
    }
  ]
}